{
  "type": "FeatureCollection",
  "features": [
    {
      "type": "Feature",
      "properties": {
        "norad_id": 41823,
        "name": "FENGYUN 1C DEB",
        "group": "fengyun-1c-debris",
        "lat": 47.72567121831743,
        "lon": 38.828213234168274,
        "alt_km": 848.3935903244765,
        "timestamp": "2025-12-11T05:00:26.598741+00:00",
        "meta_object_name": "FENGYUN 1C DEB",
        "meta_object_id": "1999-025EYA",
        "meta_epoch": "2025-12-10T15:16:58.029600",
        "meta_mean_motion": 14.2349562,
        "meta_eccentricity": 0.0054568,
        "meta_inclination": 98.7199,
        "meta_ra_of_asc_node": 47.9807,
        "meta_arg_of_pericenter": 234.2846,
        "meta_mean_anomaly": 125.3249,
        "meta_ephemeris_type": 0,
        "meta_classification_type": "U",
        "meta_norad_cat_id": 41823,
        "meta_element_set_no": 999,
        "meta_rev_at_epoch": 47328,
        "meta_bstar": 0.0022568,
        "meta_mean_motion_dot": 5.169e-05,
        "meta_mean_motion_ddot": 0,
        "tle_line1": "1 41823U 99025EYA 25344.63678275  .00005169  00000+0  22568-2 0  9990",
        "tle_line2": "2 41823  98.7199  47.9807 0054568 234.2846 125.3249 14.23495620473281"
      },
      "geometry": {
        "type": "Point",
        "coordinates": [
          38.828213234168274,
          47.72567121831743
        ]
      }
    },
    {
      "type": "Feature",
      "properties": {
        "norad_id": 41824,
        "name": "FENGYUN 1C DEB",
        "group": "fengyun-1c-debris",
        "lat": -81.25267508524203,
        "lon": 136.34404960701997,
        "alt_km": 786.5468302783202,
        "timestamp": "2025-12-11T05:00:26.598751+00:00",
        "meta_object_name": "FENGYUN 1C DEB",
        "meta_object_id": "1999-025EYB",
        "meta_epoch": "2025-12-09T14:38:40.365024",
        "meta_mean_motion": 14.24127812,
        "meta_eccentricity": 0.0057173,
        "meta_inclination": 98.7308,
        "meta_ra_of_asc_node": 47.6562,
        "meta_arg_of_pericenter": 236.3091,
        "meta_mean_anomaly": 123.2629,
        "meta_ephemeris_type": 0,
        "meta_classification_type": "U",
        "meta_norad_cat_id": 41824,
        "meta_element_set_no": 999,
        "meta_rev_at_epoch": 47315,
        "meta_bstar": 0.0025688,
        "meta_mean_motion_dot": 5.973e-05,
        "meta_mean_motion_ddot": 0,
        "tle_line1": "1 41824U 99025EYB 25343.61018941  .00005973  00000+0  25688-2 0  9995",
        "tle_line2": "2 41824  98.7308  47.6562 0057173 236.3091 123.2629 14.24127812473150"
      },
      "geometry": {
        "type": "Point",
        "coordinates": [
          136.34404960701997,
          -81.25267508524203
        ]
      }
    },
    {
      "type": "Feature",
      "properties": {
        "norad_id": 41825,
        "name": "FENGYUN 1C DEB",
        "group": "fengyun-1c-debris",
        "lat": 51.59965895293101,
        "lon": -114.55841687570413,
        "alt_km": 808.3302245999266,
        "timestamp": "2025-12-11T05:00:26.598761+00:00",
        "meta_object_name": "FENGYUN 1C DEB",
        "meta_object_id": "1999-025EYC",
        "meta_epoch": "2025-12-09T03:32:17.389536",
        "meta_mean_motion": 14.25046246,
        "meta_eccentricity": 0.00555494,
        "meta_inclination": 98.7437,
        "meta_ra_of_asc_node": 52.192,
        "meta_arg_of_pericenter": 230.7898,
        "meta_mean_anomaly": 128.8342,
        "meta_ephemeris_type": 0,
        "meta_classification_type": "U",
        "meta_norad_cat_id": 41825,
        "meta_element_set_no": 999,
        "meta_rev_at_epoch": 47297,
        "meta_bstar": 0.002021998,
        "meta_mean_motion_dot": 4.772e-05,
        "meta_mean_motion_ddot": 0,
        "tle_line1": "1 41825U 99025EYC 25343.14742349  .00004772  00000+0  20220-2 0  9993",
        "tle_line2": "2 41825  98.7437  52.1920 0055549 230.7898 128.8342 14.25046246472975"
      },
      "geometry": {
        "type": "Point",
        "coordinates": [
          -114.55841687570413,
          51.59965895293101
        ]
      }
    },
    {
      "type": "Feature",
      "properties": {
        "norad_id": 41826,
        "name": "FENGYUN 1C DEB",
        "group": "fengyun-1c-debris",
        "lat": 71.10439343410535,
        "lon": -102.30227168128293,
        "alt_km": 826.3826618720032,
        "timestamp": "2025-12-11T05:00:26.598771+00:00",
        "meta_object_name": "FENGYUN 1C DEB",
        "meta_object_id": "1999-025EYD",
        "meta_epoch": "2025-12-10T21:45:22.076064",
        "meta_mean_motion": 14.23727663,
        "meta_eccentricity": 0.00556863,
        "meta_inclination": 98.7332,
        "meta_ra_of_asc_node": 50.7137,
        "meta_arg_of_pericenter": 228.7501,
        "meta_mean_anomaly": 130.8873,
        "meta_ephemeris_type": 0,
        "meta_classification_type": "U",
        "meta_norad_cat_id": 41826,
        "meta_element_set_no": 999,
        "meta_rev_at_epoch": 47334,
        "meta_bstar": 0.0022504922,
        "meta_mean_motion_dot": 5.181e-05,
        "meta_mean_motion_ddot": 0,
        "tle_line1": "1 41826U 99025EYD 25344.90650551  .00005181  00000+0  22505-2 0  9995",
        "tle_line2": "2 41826  98.7332  50.7137 0055686 228.7501 130.8873 14.23727663473345"
      },
      "geometry": {
        "type": "Point",
        "coordinates": [
          -102.30227168128293,
          71.10439343410535
        ]
      }
    },
    {
      "type": "Feature",
      "properties": {
        "norad_id": 41827,
        "name": "FENGYUN 1C DEB",
        "group": "fengyun-1c-debris",
        "lat": -5.414147368429094,
        "lon": 55.255871675529825,
        "alt_km": 841.5750497616855,
        "timestamp": "2025-12-11T05:00:26.598781+00:00",
        "meta_object_name": "FENGYUN 1C DEB",
        "meta_object_id": "1999-025EYE",
        "meta_epoch": "2025-12-10T15:33:15.246432",
        "meta_mean_motion": 14.25246458,
        "meta_eccentricity": 0.00581722,
        "meta_inclination": 98.7428,
        "meta_ra_of_asc_node": 53.8617,
        "meta_arg_of_pericenter": 219.5184,
        "meta_mean_anomaly": 140.1747,
        "meta_ephemeris_type": 0,
        "meta_classification_type": "U",
        "meta_norad_cat_id": 41827,
        "meta_element_set_no": 999,
        "meta_rev_at_epoch": 47301,
        "meta_bstar": 0.0026161949,
        "meta_mean_motion_dot": 6.222e-05,
        "meta_mean_motion_ddot": 0,
        "tle_line1": "1 41827U 99025EYE 25344.64809313  .00006222  00000+0  26162-2 0  9999",
        "tle_line2": "2 41827  98.7428  53.8617 0058172 219.5184 140.1747 14.25246458473015"
      },
      "geometry": {
        "type": "Point",
        "coordinates": [
          55.255871675529825,
          -5.414147368429094
        ]
      }
    },
    {
      "type": "Feature",
      "properties": {
        "norad_id": 41828,
        "name": "FENGYUN 1C DEB",
        "group": "fengyun-1c-debris",
        "lat": 74.14968418266004,
        "lon": -33.246514251542045,
        "alt_km": 706.8982603219538,
        "timestamp": "2025-12-11T05:00:26.598791+00:00",
        "meta_object_name": "FENGYUN 1C DEB",
        "meta_object_id": "1999-025EYF",
        "meta_epoch": "2025-12-10T07:01:32.315232",
        "meta_mean_motion": 14.5154545,
        "meta_eccentricity": 0.0039138,
        "meta_inclination": 98.9218,
        "meta_ra_of_asc_node": 112.1892,
        "meta_arg_of_pericenter": 182.7681,
        "meta_mean_anomaly": 177.3301,
        "meta_ephemeris_type": 0,
        "meta_classification_type": "U",
        "meta_norad_cat_id": 41828,
        "meta_element_set_no": 999,
        "meta_rev_at_epoch": 47428,
        "meta_bstar": 0.0080672,
        "meta_mean_motion_dot": 0.00032703,
        "meta_mean_motion_ddot": 0,
        "tle_line1": "1 41828U 99025EYF 25344.29273513  .00032703  00000+0  80672-2 0  9997",
        "tle_line2": "2 41828  98.9218 112.1892 0039138 182.7681 177.3301 14.51545450474284"
      },
      "geometry": {
        "type": "Point",
        "coordinates": [
          -33.246514251542045,
          74.14968418266004
        ]
      }
    },
    {
      "type": "Feature",
      "properties": {
        "norad_id": 41829,
        "name": "FENGYUN 1C DEB",
        "group": "fengyun-1c-debris",
        "lat": 38.17192366820117,
        "lon": -118.62492251836413,
        "alt_km": 799.4695600724717,
        "timestamp": "2025-12-11T05:00:26.598801+00:00",
        "meta_object_name": "FENGYUN 1C DEB",
        "meta_object_id": "1999-025EYG",
        "meta_epoch": "2025-12-09T15:16:14.445984",
        "meta_mean_motion": 14.2508781,
        "meta_eccentricity": 0.0056269,
        "meta_inclination": 98.7436,
        "meta_ra_of_asc_node": 52.8598,
        "meta_arg_of_pericenter": 227.8502,
        "meta_mean_anomaly": 131.789,
        "meta_ephemeris_type": 0,
        "meta_classification_type": "U",
        "meta_norad_cat_id": 41829,
        "meta_element_set_no": 999,
        "meta_rev_at_epoch": 47263,
        "meta_bstar": 0.002488,
        "meta_mean_motion_dot": 5.89e-05,
        "meta_mean_motion_ddot": 0,
        "tle_line1": "1 41829U 99025EYG 25343.63627831  .00005890  00000+0  24880-2 0  9997",
        "tle_line2": "2 41829  98.7436  52.8598 0056269 227.8502 131.7890 14.25087810472631"
      },
      "geometry": {
        "type": "Point",
        "coordinates": [
          -118.62492251836413,
          38.17192366820117
        ]
      }
    }
  ]
}